<?xml version="1.0" encoding="UTF-8" standalone="no" ?>
<gpx version="1.1" creator="http://www.geoplaner.com" xmlns:xsi="http://www.w3.org/2001/XMLSchema-instance" xmlns="http://www.topografix.com/GPX/1/1" xsi:schemaLocation="http://www.topografix.com/GPX/1/1 http://www.topografix.com/GPX/1/1/gpx.xsd">
<wpt lat="46.76892" lon="6.9256">
<name>WP01-A</name>
</wpt>
<wpt lat="46.7686" lon="6.92549">
<name>WP02-B</name>
</wpt>
<wpt lat="46.76816" lon="6.92533">
<name>WP03-C</name>
</wpt>
<wpt lat="46.76805" lon="6.9253">
<name>WP04-D</name>
</wpt>
</gpx>