<?xml version="1.0" encoding="UTF-8" standalone="no" ?>
<gpx version="1.1" creator="http://www.geoplaner.com" xmlns:xsi="http://www.w3.org/2001/XMLSchema-instance" xmlns="http://www.topografix.com/GPX/1/1" xsi:schemaLocation="http://www.topografix.com/GPX/1/1 http://www.topografix.com/GPX/1/1/gpx.xsd">
<wpt lat="46.76957" lon="6.92649">
<name>WP01-A</name>
</wpt>
<wpt lat="46.76956" lon="6.92656">
<name>WP02-B</name>
</wpt>
<wpt lat="46.76914" lon="6.92632">
<name>WP03-C</name>
</wpt>
<wpt lat="46.76931" lon="6.92584">
<name>WP04-D</name>
</wpt>
<wpt lat="46.76877" lon="6.9256">
<name>WP05-E</name>
</wpt>
<wpt lat="46.76833" lon="6.9255">
<name>WP06-F</name>
</wpt>
<wpt lat="46.76793" lon="6.9253">
<name>WP07-G</name>
</wpt>
<wpt lat="46.76746" lon="6.92499">
<name>WP08-H</name>
</wpt>
<wpt lat="46.76733" lon="6.92537">
<name>WP09-I</name>
</wpt>
</gpx>