<?xml version="1.0" encoding="UTF-8" standalone="no" ?>
<gpx version="1.1" creator="http://www.geoplaner.com" xmlns:xsi="http://www.w3.org/2001/XMLSchema-instance" xmlns="http://www.topografix.com/GPX/1/1" xsi:schemaLocation="http://www.topografix.com/GPX/1/1 http://www.topografix.com/GPX/1/1/gpx.xsd">
<wpt lat="46.77032" lon="6.92601">
<name>WP01-A</name>
</wpt>
<wpt lat="46.77033" lon="6.92611">
<name>WP02-B</name>
</wpt>
<wpt lat="46.77054" lon="6.92614">
<name>WP03-C</name>
</wpt>
<wpt lat="46.77069" lon="6.92537">
<name>WP04-D</name>
</wpt>
<wpt lat="46.77075" lon="6.92522">
<name>WP05-E</name>
</wpt>
<wpt lat="46.77084" lon="6.92529">
<name>WP06-F</name>
</wpt>
</gpx>