<?xml version="1.0" encoding="UTF-8" standalone="no" ?>
<gpx version="1.1" creator="http://www.geoplaner.com" xmlns:xsi="http://www.w3.org/2001/XMLSchema-instance" xmlns="http://www.topografix.com/GPX/1/1" xsi:schemaLocation="http://www.topografix.com/GPX/1/1 http://www.topografix.com/GPX/1/1/gpx.xsd">
<wpt lat="46.77032" lon="6.92598">
<name>WP01-A</name>
</wpt>
<wpt lat="46.77032" lon="6.92617">
<name>WP02-B</name>
</wpt>
<wpt lat="46.77082" lon="6.92622">
<name>WP03-C</name>
</wpt>
<wpt lat="46.77099" lon="6.92623">
<name>WP04-D</name>
</wpt>
<wpt lat="46.771" lon="6.92608">
<name>WP05-E</name>
</wpt>
<wpt lat="46.77094" lon="6.92608">
<name>WP06-F</name>
</wpt>
</gpx>