<?xml version="1.0" encoding="UTF-8" standalone="no" ?>
<gpx version="1.1" creator="http://www.geoplaner.com" xmlns:xsi="http://www.w3.org/2001/XMLSchema-instance" xmlns="http://www.topografix.com/GPX/1/1" xsi:schemaLocation="http://www.topografix.com/GPX/1/1 http://www.topografix.com/GPX/1/1/gpx.xsd">
<wpt lat="46.76827" lon="6.92543">
<name>WP01-A</name>
</wpt>
<wpt lat="46.76817" lon="6.92535">
<name>WP02-B</name>
</wpt>
<wpt lat="46.767" lon="6.92464">
<name>WP03-C</name>
</wpt>
<wpt lat="46.76675" lon="6.92445">
<name>WP04-D</name>
</wpt>
</gpx>