<?xml version="1.0" encoding="UTF-8" standalone="no" ?>
<gpx version="1.1" creator="http://www.geoplaner.com" xmlns:xsi="http://www.w3.org/2001/XMLSchema-instance" xmlns="http://www.topografix.com/GPX/1/1" xsi:schemaLocation="http://www.topografix.com/GPX/1/1 http://www.topografix.com/GPX/1/1/gpx.xsd">
<wpt lat="46.76955" lon="6.92644">
<name>WP01-A</name>
</wpt>
<wpt lat="46.76952" lon="6.92649">
<name>WP13-M</name>
</wpt>
<wpt lat="46.76924" lon="6.92628">
<name>WP14-N</name>
</wpt>
<wpt lat="46.76939" lon="6.92584">
<name>WP15-O</name>
</wpt>
<wpt lat="46.77029" lon="6.92613">
<name>WP16-P</name>
</wpt>
<wpt lat="46.77033" lon="6.92602">
<name>WP17-Q</name>
</wpt>
</gpx>